SHIJIAN-6 05B (SJ-6 05B)
1 49962U 21122B   26068.69026669  .00003434  00000+0  20679-3 0  9994
2 49962  97.3727  52.7566 0002764  59.7124 300.4380 15.11445981234719
STARLINK-3975           
1 52620U 22052Y   26068.87062468  .00001500  00000+0  11228-3 0  9991
2 52620  53.2156 283.3126 0001215  89.4731 270.6400 15.08853082210805
